NORAD_CAT_ID,OBJECT_NAME,OBJECT_TYPE,EPOCH,MEAN_MOTION,ECCENTRICITY,INCLINATION,RA_OF_ASC_NODE,ARG_OF_PERICENTER,MEAN_ANOMALY,BSTAR,MEAN_MOTION_DOT,MEAN_MOTION_DDOT,TLE_LINE0,TLE_LINE1,TLE_LINE2,SEMIMAJOR_AXIS,PERIOD,APOGEE,PERIGEE,DECAYED
50194.0,STARLINK-3269,PAYLOAD,2024-07-13 09:20:15,15.08840037,0.0001323,53.2167,71.941,106.9165,253.1972,-6.4359e-06,-3.9e-06,0.0,0 STARLINK-3269,1 50194U 21125AQ  24195.38907291 -.00000390  00000-0 -64359-5 0  9996,2 50194  53.2167  71.9410 0001323 106.9165 253.1972 15.08840037145032,6917.88,95.438,540.661,538.83,0.0
50194.0,STARLINK-3269,PAYLOAD,2024-07-13 22:03:20,15.08843265,0.0001309,53.2154,69.5657,96.8263,263.2879,2.0871e-05,4.4e-07,0.0,0 STARLINK-3269,1 50194U 21125AQ  24195.91899249  .00000044  00000-0  20871-4 0  9992,2 50194  53.2154  69.5657 0001309  96.8263 263.2879 15.08843265145634,6917.87,95.437,540.641,538.83,0.0
50194.0,STARLINK-3269,PAYLOAD,2024-07-14 09:11:02,15.08848206,0.000133,53.2171,67.4843,93.9522,266.1622,5.5161e-05,5.9e-06,0.0,0 STARLINK-3269,1 50194U 21125AQ  24196.38266791  .00000590  00000-0  55161-4 0  9990,2 50194  53.2171  67.4843 0001330  93.9522 266.1622 15.08848206145185,6917.855,95.437,540.64,538.8,0.0
50194.0,STARLINK-3269,PAYLOAD,2024-07-14 21:54:07,15.08849582,0.0001262,53.2188,65.1042,102.7733,257.34,0.00018289,2.625e-05,0.0,0 STARLINK-3269,1 50194U 21125AQ  24196.91258423  .00002625  00000-0  18289-3 0  9992,2 50194  53.2188  65.1042 0001262 102.7733 257.3400 15.08849582145786,6917.851,95.437,540.589,538.843,0.0
50194.0,STARLINK-3269,PAYLOAD,2024-07-15 21:44:55,15.08839298,0.0001452,53.217,60.6455,91.6558,268.46,9.4271e-05,1.213e-05,0.0,0 STARLINK-3269,1 50194U 21125AQ  24197.90619489  .00001213  00000-0  94271-4 0  9993,2 50194  53.2170  60.6455 0001452  91.6558 268.4600 15.08839298145415,6917.883,95.438,540.752,538.743,0.0
50194.0,STARLINK-3269,PAYLOAD,2024-07-16 07:17:13,15.08841184,0.0001481,53.2173,58.8621,91.4107,268.7055,5.3725e-05,5.67e-06,0.0,0 STARLINK-3269,1 50194U 21125AQ  24198.30363388  .00000567  00000-0  53725-4 0  9992,2 50194  53.2173  58.8621 0001481  91.4107 268.7055 15.08841184145999,6917.877,95.437,540.766,538.717,0.0
50194.0,STARLINK-3269,PAYLOAD,2024-07-16 20:00:18,15.08843067,0.0001573,53.2174,56.4837,93.9783,266.1389,6.6762e-05,7.75e-06,0.0,0 STARLINK-3269,1 50194U 21125AQ  24198.83355308  .00000775  00000-0  66762-4 0  9999,2 50194  53.2174  56.4837 0001573  93.9783 266.1389 15.08843067146076,6917.871,95.437,540.824,538.648,0.0
50194.0,STARLINK-3269,PAYLOAD,2024-07-17 07:08:01,15.0883711,0.0001545,53.2175,54.4022,96.0185,264.0983,0.00016017,2.262e-05,0.0,0 STARLINK-3269,1 50194U 21125AQ  24199.29723655  .00002262  00000-0  16017-3 0  9994,2 50194  53.2175  54.4022 0001545  96.0185 264.0983 15.08837110145629,6917.889,95.438,540.823,538.685,0.0
50194.0,STARLINK-3269,PAYLOAD,2024-07-17 19:51:06,15.08833945,0.0001742,53.2181,52.0261,109.7764,250.3416,1.8564e-05,7e-08,0.0,0 STARLINK-3269,1 50194U 21125AQ  24199.82716022  .00000007  00000-0  18564-4 0  9998,2 50194  53.2181  52.0261 0001742 109.7764 250.3416 15.08833945146227,6917.899,95.438,540.969,538.559,0.0
50194.0,STARLINK-3269,PAYLOAD,2024-07-18 06:58:48,15.08840484,0.0001431,53.217,49.9381,81.7883,278.3271,9.1446e-05,1.168e-05,0.0,0 STARLINK-3269,1 50194U 21125AQ  24200.29083800  .00001168  00000-0  91446-4 0  9992,2 50194  53.2170  49.9381 0001431  81.7883 278.3271 15.08840484146291,6917.879,95.438,540.734,538.754,0.0
50194.0,STARLINK-3269,PAYLOAD,2024-07-18 21:17:16,15.08839672,0.0001421,53.2168,47.2662,97.0551,263.0603,0.00012512,1.704e-05,0.0,0 STARLINK-3269,1 50194U 21125AQ  24200.88700105  .00001704  00000-0  12512-3 0  9993,2 50194  53.2168  47.2662 0001421  97.0551 263.0603 15.08839672146389,6917.881,95.438,540.729,538.763,0.0
50194.0,STARLINK-3269,PAYLOAD,2024-07-19 00:28:02,15.08844948,0.0001325,53.2169,46.6674,93.8676,266.2467,0.00013056,1.791e-05,0.0,0 STARLINK-3269,1 50194U 21125AQ  24201.01947831  .00001791  00000-0  13056-3 0  9998,2 50194  53.2169  46.6674 0001325  93.8676 266.2467 15.08844948146409,6917.865,95.437,540.647,538.814,0.0
50194.0,STARLINK-3269,PAYLOAD,2024-07-19 21:08:03,15.0884502,0.000169,53.2173,42.8019,84.5952,275.5232,0.00015857,2.237e-05,0.0,0 STARLINK-3269,1 50194U 21125AQ  24201.88060142  .00002237  00000-0  15857-3 0  9991,2 50194  53.2173  42.8019 0001690  84.5952 275.5232 15.08845020146533,6917.865,95.437,540.899,538.561,0.0
50194.0,STARLINK-3269,PAYLOAD,2024-07-20 06:40:22,15.0884542,0.0001298,53.2164,41.0227,81.7605,278.3534,7.9182e-05,9.73e-06,0.0,0 STARLINK-3269,1 50194U 21125AQ  24202.27803975  .00000973  00000-0  79182-4 0  9991,2 50194  53.2164  41.0227 0001298  81.7605 278.3534 15.08845420146072,6917.864,95.437,540.627,538.831,0.0
50194.0,STARLINK-3269,PAYLOAD,2024-07-20 19:23:28,15.08837706,0.000119,53.2165,38.6379,89.676,270.4369,0.00014964,2.094e-05,0.0,0 STARLINK-3269,1 50194U 21125AQ  24202.80796374  .00002094  00000-0  14964-3 0  9996,2 50194  53.2165  38.6379 0001190  89.6760 270.4369 15.08837706146159,6917.887,95.438,540.576,538.929,0.0
50194.0,STARLINK-3269,PAYLOAD,2024-07-21 06:31:09,15.08847221,0.0001103,53.2165,36.557,101.9735,258.1381,6.1064e-05,6.84e-06,0.0,0 STARLINK-3269,1 50194U 21125AQ  24203.27163798  .00000684  00000-0  61064-4 0  9993,2 50194  53.2165  36.5570 0001103 101.9735 258.1381 15.08847221146221,6917.858,95.437,540.486,538.96,0.0
50194.0,STARLINK-3269,PAYLOAD,2024-07-21 19:14:14,15.08848107,0.000126,53.2182,34.1765,112.4199,247.6927,-4.2931e-05,-9.71e-06,0.0,0 STARLINK-3269,1 50194U 21125AQ  24203.80156029 -.00000971  00000-0 -42931-4 0  9994,2 50194  53.2182  34.1765 0001260 112.4199 247.6927 15.08848107146824,6917.856,95.437,540.592,538.849,0.0
50194.0,STARLINK-3269,PAYLOAD,2024-07-22 12:43:29,15.08834483,0.0001372,53.2182,30.9051,110.2959,249.8181,0.00012048,1.63e-05,0.0,0 STARLINK-3269,1 50194U 21125AQ  24204.53020490  .00001630  00000-0  12048-3 0  9993,2 50194  53.2182  30.9051 0001372 110.2959 249.8181 15.08834483146413,6917.897,95.438,540.711,538.813,0.0
50194.0,STARLINK-3269,PAYLOAD,2024-07-23 22:06:35,15.08842506,0.0001463,53.2172,24.6638,91.5765,268.5395,5.4302e-05,5.76e-06,0.0,0 STARLINK-3269,1 50194U 21125AQ  24205.92124321  .00000576  00000-0  54302-4 0  9993,2 50194  53.2172  24.6638 0001463  91.5765 268.5395 15.08842506147141,6917.873,95.437,540.75,538.726,0.0
50194.0,STARLINK-3269,PAYLOAD,2024-07-24 12:25:04,15.0883446,0.0001441,53.2185,21.9851,100.7672,259.3483,-2.3381e-05,-6.6e-06,0.0,0 STARLINK-3269,1 50194U 21125AQ  24206.51741034 -.00000660  00000-0 -23381-4 0  9994,2 50194  53.2185  21.9851 0001441 100.7672 259.3483 15.08834460146716,6917.897,95.438,540.759,538.765,0.0
50194.0,STARLINK-3269,PAYLOAD,2024-07-24 21:57:22,15.08841115,0.0001728,53.2191,20.2002,99.3925,260.7263,3.3812e-05,2.5e-06,0.0,0 STARLINK-3269,1 50194U 21125AQ  24206.91484568  .00000250  00000-0  33812-4 0  9997,2 50194  53.2191  20.2002 0001728  99.3925 260.7263 15.08841115147296,6917.877,95.437,540.937,538.547,0.0
50194.0,STARLINK-3269,PAYLOAD,2024-07-25 20:12:46,15.08837197,0.0001783,53.2125,16.0398,93.0673,267.0523,9.0704e-05,1.156e-05,0.0,0 STARLINK-3269,1 50194U 21125AQ  24207.84220870  .00001156  00000-0  90704-4 0  9993,2 50194  53.2125  16.0398 0001783  93.0673 267.0523 15.08837197147436,6917.889,95.438,540.987,538.52,0.0
50194.0,STARLINK-3269,PAYLOAD,2024-07-26 10:31:15,15.08835846,0.0001556,53.2174,13.3673,83.1847,276.9322,0.00010142,1.326e-05,0.0,0 STARLINK-3269,1 50194U 21125AQ  24208.43837018  .00001326  00000-0  10142-3 0  9993,2 50194  53.2174  13.3673 0001556  83.1847 276.9322 15.08835846147005,6917.893,95.438,540.835,538.682,0.0
50194.0,STARLINK-3269,PAYLOAD,2024-07-26 20:03:33,15.08845444,0.0001561,53.2186,11.5827,82.8009,277.316,2.9361e-05,1.79e-06,0.0,0 STARLINK-3269,1 50194U 21125AQ  24208.83580622  .00000179  00000-0  29361-4 0  9992,2 50194  53.2186  11.5827 0001561  82.8009 277.3160 15.08845444147584,6917.864,95.437,540.809,538.649,0.0
50194.0,STARLINK-3269,PAYLOAD,2024-07-27 04:00:30,15.0882145,0.0002312,53.2278,10.092,87.3233,272.8023,8.7431e-05,1.103e-05,0.0,0 STARLINK-3269,1 50194U 21125AQ  24209.16702343  .00001103  00000-0  87431-4 0  9995,2 50194  53.2278  10.0920 0002312  87.3233 272.8023 15.08821450147116,6917.937,95.439,541.402,538.203,0.0
50194.0,STARLINK-3269,PAYLOAD,2024-07-27 10:22:02,15.0883118,0.0001814,53.2195,8.9078,82.789,277.3308,5.8011e-06,-1.96e-06,0.0,0 STARLINK-3269,1 50194U 21125AQ  24209.43197830 -.00000196  00000-0  58011-5 0  9999,2 50194  53.2195   8.9078 0001814  82.7890 277.3308 15.08831180147159,6917.907,95.438,541.027,538.517,0.0
50194.0,STARLINK-3269,PAYLOAD,2024-07-27 19:54:21,15.08834626,0.0001733,53.2183,7.1223,81.0896,279.0293,-2.1004e-05,-6.22e-06,0.0,0 STARLINK-3269,1 50194U 21125AQ  24209.82941875 -.00000622  00000-0 -21004-4 0  9994,2 50194  53.2183   7.1223 0001733  81.0896 279.0293 15.08834626147731,6917.897,95.438,540.961,538.563,0.0
50194.0,STARLINK-3269,PAYLOAD,2024-07-28 03:51:17,15.08838405,0.0001788,53.2189,5.6356,86.1241,273.9955,4.3103e-05,3.98e-06,0.0,0 STARLINK-3269,1 50194U 21125AQ  24210.16061523  .00000398  00000-0  43103-4 0  9998,2 50194  53.2189   5.6356 0001788  86.1241 273.9955 15.08838405147262,6917.885,95.438,540.987,538.513,0.0
50194.0,STARLINK-3269,PAYLOAD,2024-07-28 18:09:44,15.08851484,0.0001456,53.2185,2.9579,83.6822,276.4336,0.00011896,1.606e-05,0.0,0 STARLINK-3269,1 50194U 21125AQ  24210.75676373  .00001606  00000-0  11896-3 0  9994,2 50194  53.2185   2.9579 0001456  83.6822 276.4336 15.08851484147357,6917.845,95.437,540.718,538.703,0.0
50194.0,STARLINK-3269,PAYLOAD,2024-07-29 03:42:03,15.08844514,0.0001585,53.2183,1.1746,81.2255,278.8917,0.00017196,2.45e-05,0.0,0 STARLINK-3269,1 50194U 21125AQ  24211.15420648  .00002450  00000-0  17196-3 0  9998,2 50194  53.2183   1.1746 0001585  81.2255 278.8917 15.08844514147413,6917.867,95.437,540.828,538.635,0.0
